GLOBALSTAR M001         
1 25162U 98008A   25063.03544044 -.00000063  00000+0  25669-3 0  9991
2 25162  52.0024 279.2801 0002206  49.9868 115.2966 12.38208430230796
GLOBALSTAR M004         
1 25163U 98008B   25062.84384778 -.00000071  00000+0  18110-3 0  9998
2 25163  52.0029  15.5266 0003459  58.3717 319.2713 12.63389082248376
GLOBALSTAR M002         
1 25164U 98008C   25063.17522693 -.00000062  00000+0  27841-3 0  9997
2 25164  52.0005 143.5041 0000676 313.6670  46.4093 11.61508278171931
GLOBALSTAR M003         
1 25165U 98008D   25063.49124771 -.00000051  00000+0  40929-3 0  9998
2 25165  51.9985  98.4809 0008283  84.0309  64.1323 12.12073581220611
GLOBALSTAR M014         
1 25306U 98023A   25063.51789280 -.00000086  00000+0 -15414-3 0  9997
2 25306  51.9839  68.0681 0001134 158.9957  12.6104 11.65478545178955
GLOBALSTAR M006         
1 25307U 98023B   25063.45026108 -.00000068  00000+0  16314-3 0  9993
2 25307  51.9926 116.7997 0003065 268.7934 192.3858 11.58172617204803
GLOBALSTAR M015         
1 25308U 98023C   25062.79356794 -.00000060  00000+0  29927-3 0  9993
2 25308  51.9793 212.0755 0011904 245.6232 260.5816 11.48858734181967
GLOBALSTAR M008         
1 25309U 98023D   25063.52538787 -.00000038  00000+0  45755-3 0  9992
2 25309  51.9963 141.4959 0001971 319.1231 145.2643 12.36063859225215
